OUFTI-1                 
1 41458U 16025C   21199.95010989  .00000897  00000-0  47334-4 0  9998
2 41458  98.1480 339.0083 0156730 313.7665  45.0679 15.08816683287221
E-ST@R-II               
1 41459U 16025D   21200.32772537  .00001049  00000-0  55176-4 0  9990
2 41459  98.1462 338.4366 0158557 315.3725  43.4862 15.08226272287228
AAUSAT 4                
1 41460U 16025E   21200.35721592  .00001412  00000-0  69346-4 0  9998
2 41460  98.1458 342.5102 0145169 298.6166  60.0471 15.11363507287538
AIST-2D (RS-48)         
1 41465U 16026B   21200.63092356  .00001715  00000-0  50399-4 0  9998
2 41465  97.1030  83.6339 0008999 256.2269 156.7789 15.36418265292378
SAMSAT-218D             
1 41466U 16026C   21200.58165804  .00015458  00000-0  21804-3 0  9999
2 41466  97.1536 109.0515 0005607 148.3790 332.6993 15.56665250293836
NUSAT-1 (FRESCO)        
1 41557U 16033B   21200.58853527  .00001863  00000-0  67408-4 0  9990
2 41557  97.3942 294.3498 0014486 117.7700 355.9983 15.29603181286445
NUSAT-2 (BATATA)        
1 41558U 16033C   21200.40593788  .00001834  00000-0  62329-4 0  9997
2 41558  97.4056 298.1357 0013500 112.3911 312.3053 15.31694448286613
CARTOSAT-2C             
1 41599U 16040A   21200.61003175  .00000517  00000-0  27695-4 0  9993
2 41599  97.3968 259.3004 0012346 265.6464 252.2867 15.19258465281395
SATHYABAMASAT           
1 41600U 16040B   21200.13732496  .00002000  00000-0  79494-4 0  9991
2 41600  97.2705 256.4818 0011749 219.0647 140.9744 15.26387796281989
LAPAN-A3                
1 41603U 16040E   21200.59601807  .00000221  00000-0  13266-4 0  9993
2 41603  97.2528 246.3041 0011526 248.3963 264.4019 15.20057869281469
BIROS                   
1 41604U 16040F   21200.14155261  .00000543  00000-0  26244-4 0  9990
2 41604  97.2603 251.5268 0010893 223.0620 136.9766 15.22645122281727
SWAYAM                  
1 41607U 16040J   21199.84214495  .00001914  00000-0  77045-4 0  9990
2 41607  97.2657 254.9505 0011369 220.7545 139.2844 15.26023292281836
BEESAT-4                
1 41619U 16040W   21200.07382983  .00001784  00000-0  72757-4 0  9999
2 41619  97.2675 255.2780 0009649 211.1353 148.9315 15.25678160269832
3CAT-2                  
1 41732U 16051B   21200.54416100  .00001645  00000-0  60890-4 0  9999
2 41732  97.3755 120.5482 0013894  38.5755 135.8969 15.29023513274404
PRATHAM                 
1 41783U 16059A   21200.40144126  .00000045  00000-0  17743-4 0  9996
2 41783  97.9619 249.4095 0034430 143.3903 216.9662 14.63151447256928
ALSAT 1N                
1 41789U 16059G   21200.41534493  .00000060  00000-0  20105-4 0  9996
2 41789  97.9650 253.1898 0029357 128.4485 231.9369 14.64436352257129
LISHUI 1-01             
1 41845U 16066E   21200.54946625  .00003824  00000-0  49216-3 0  9999
2 41845  98.7343 305.7069 0267954  21.9689 339.2751 14.59690718248088
CARTOSAT-2D             
1 41948U 17008A   21199.82736711  .00000552  00000-0  29407-4 0  9997
2 41948  97.4389 259.6783 0008134  61.9326 298.2516 15.19255019245148
NAYIF-1 (EO-88)         
1 42017U 17008BX  21199.72718860  .00001893  00000-0  71193-4 0  9997
2 42017  97.3142 266.7679 0005995  15.4339 344.7083 15.28358174246036
ZHUHAI-1 02 (CAS-4B)    
1 42759U 17034B   21200.50610684  .00000425  00000-0  38866-4 0  9993
2 42759  43.0188   4.8629 0008836 355.8371 104.9565 15.10269989225996
ZHUHAI-1 01 (CAS-4A)    
1 42761U 17034D   21200.56355772  .00000348  00000-0  34175-4 0  9999
2 42761  43.0186   3.5765 0009122 357.2330 115.5317 15.10357284226006
UCLSAT                  
1 42765U 17036A   21199.82306807  .00001626  00000-0  67830-4 0  9990
2 42765  97.2473 248.3861 0012514  70.8371 289.4221 15.25000092226955
NIUSAT                  
1 42766U 17036B   21200.11927212  .00001231  00000-0  55307-4 0  9993
2 42766  97.2477 244.9914 0016614  67.3643 292.9350 15.22845227226034
CARTOSAT-2E             
1 42767U 17036C   21200.44371708  .00000485  00000-0  26294-4 0  9996
2 42767  97.5018 259.2473 0010200  97.5028 318.5993 15.19211340225806
LITUANICASAT-2          
1 42768U 17036D   21200.07055428  .00002908  00000-0  11362-3 0  9995
2 42768  97.2549 249.5281 0015007  59.1913 301.0801 15.26555239226294
AALTO-1                 
1 42775U 17036L   21199.69909953  .00000988  00000-0  45072-4 0  9991
2 42775  97.2446 244.8201 0015117  68.0631 292.2211 15.22771993225957
URSA MAIOR              
1 42776U 17036M   21199.69606265  .00001099  00000-0  49441-4 0  9990
2 42776  97.2460 245.3012 0014901  67.5158 292.7655 15.23044621225979
COMPASS 2               
1 42777U 17036N   21199.92594179  .00002277  00000-0  91418-4 0  9997
2 42777  97.2533 249.5116 0013087  61.7617 298.4941 15.25892984226216
MAX VALIER SAT          
1 42778U 17036P   21199.76140942  .00001202  00000-0  52801-4 0  9995
2 42778  97.2527 247.3437 0013530  69.7266 290.5425 15.23718250226056
PEGASUS                 
1 42784U 17036V   21199.94312562  .00001497  00000-0  63465-4 0  9995
2 42784  97.2480 248.0096 0013082  71.8325 288.4336 15.24564831226155
NUDTSAT                 
1 42787U 17036Y   21199.90883452  .00002391  00000-0  93949-4 0  9999
2 42787  97.2519 250.4875 0012403  65.1983 295.0546 15.26573046226130
SUCHAI                  
1 42788U 17036Z   21200.12236048  .00001830  00000-0  75146-4 0  9996
2 42788  97.2492 249.2137 0012509  68.8263 291.4311 15.25383604226314
SKCUBE                  
1 42789U 17036AA  21199.76344893  .00001646  00000-0  68417-4 0  9990
2 42789  97.2485 248.5631 0012474  70.4910 289.7675 15.25106075226168
VZLUSAT-1               
1 42790U 17036AB  21199.70677382  .00002255  00000-0  88835-4 0  9991
2 42790  97.2518 250.2804 0011765  67.3080 292.9402 15.26545080226252
ROBUSTA-1B              
1 42792U 17036AD  21199.79298754  .00001792  00000-0  73708-4 0  9992
2 42792  97.2488 248.9835 0012044  70.5197 289.7341 15.25350049226203
D-SAT                   
1 42794U 17036AF  21200.29095657  .00000288  00000-0  29678-4 0  9995
2 42794  97.4598 218.4899 0126940 119.2148 242.1837 14.91604922221841
NORSAT 2                
1 42828U 17042D   21199.82393089  .00000179  00000-0  22857-4 0  9997
2 42828  97.4742  69.1715 0015493  44.9493 315.2978 14.91889176218418
TECHNOSAT               
1 42829U 17042E   21200.39264922  .00000198  00000-0  25108-4 0  9999
2 42829  97.4652  68.2266 0015312  45.1270 315.1189 14.91307025218440
2017-042F               
1 42830U 17042F   21200.37860361  .00000838  00000-0  85706-4 0  9999
2 42830  97.4778  70.9646 0015191  37.7436 322.4846 14.92943481218566
FLYING LAPTOP           
1 42831U 17042G   21200.49986082 -.00000300  00000-0 -24783-4 0  9996
2 42831  97.4670  68.5604 0015172  45.3722 314.8743 14.91314790218461
CORVUS BC2              
1 42846U 17042X   21200.08098128  .00000026  00000-0  76557-5 0  9992
2 42846  97.4688  70.4769 0010609  40.2915 319.9089 14.92321123218556
CORVUS BC1              
1 42847U 17042Y   21200.38485247  .00000341  00000-0  38351-4 0  9997
2 42847  97.4692  71.0097 0010223  38.6205 321.5744 14.92420940218608
SIMPL                   
1 42983U 98067NF  21200.34056632  .00006879  00000-0  67496-4 0  9996
2 42983  51.6368  97.2905 0003807 107.0407 253.1007 15.67391523212405
CZ-4C R/B               
1 43012U 17072C   21199.96058612  .00000036  00000-0  19449-4 0  9996
2 43012  98.7279 216.0937 0126317 256.5381 102.1712 14.56181709195328
RADFXSAT (FOX-1B)       
1 43017U 17073E   21199.71287108  .00000322  00000-0  30396-4 0  9991
2 43017  97.7042 102.4617 0254244 198.0933 161.1108 14.79601851197749
EAGLESAT 1              
1 43018U 17073F   21200.53551834  .00000692  00000-0  57706-4 0  9999
2 43018  97.7051 104.1944 0250820 191.8745 167.6486 14.80690465197796
ECAMSAT                 
1 43019U 98067NG  21199.85570523  .00028744  00000-0  14472-3 0  9990
2 43019  51.6380  61.7801 0002692 115.0420 245.0862 15.81421965295158
INS-1C                  
1 43116U 18004F   21200.46697006  .00001713  00000-0  70841-4 0  9997
2 43116  97.4129 274.6461 0010709  90.1139 270.1326 15.25299914195529
FLOCK 3P'-3             
1 43119U 18004J   21200.44947062  .00001187  00000-0  51349-4 0  9995
2 43119  97.4116 273.4749 0011632  97.6565 262.5994 15.24365846195450
FLOCK 3P'-2             
1 43120U 18004K   21199.84124106  .00000855  00000-0  38177-4 0  9999
2 43120  97.4124 272.6592 0011669 100.0071 260.2483 15.24019296195340
FLOCK 3P'-1             
1 43121U 18004L   21200.45732548  .00003604  00000-0  13687-3 0  9998
2 43121  97.4119 275.2975 0010621  92.3194 267.9261 15.27423164195507
FLOCK 3P'-4             
1 43122U 18004M   21200.42696078  .00000845  00000-0  37708-4 0  9998
2 43122  97.4133 273.3493 0011484  99.8567 260.3967 15.24048228195435
MICROMAS-2A             
1 43131U 18004W   21199.76218493  .00002465  00000-0  93975-4 0  9991
2 43131  97.4105 275.4892 0010086  93.5290 266.7103 15.27612840195545
PICSAT                  
1 43132U 18004X   21200.45270881  .00001676  00000-0  67945-4 0  9991
2 43132  97.4083 274.7089 0010720  95.5574 264.6887 15.26001600195566
CNUSAIL-1               
1 43133U 18004Y   21199.71438582  .00001206  00000-0  51184-4 0  9999
2 43133  97.4054 272.9306 0010905  99.7024 260.5446 15.24966653195391
2018-004Z               
1 43134U 18004Z   21200.44539418  .00001578  00000-0  64887-4 0  9999
2 43134  97.4070 274.3659 0010640  96.6417 263.6032 15.25608897195530
FOX-1D (AO-92)          
1 43137U 18004AC  21199.88739287  .00001349  00000-0  56244-4 0  9997
2 43137  97.4056 273.5981 0010478  99.6285 260.6137 15.25376134195451
STEP CUBE LAB           
1 43138U 18004AD  21200.15696772  .00002201  00000-0  85367-4 0  9998
2 43138  97.4102 275.7049 0010090  96.1434 264.0955 15.27159724195598
XIAOXIANG-2             
1 43155U 18008A   21200.48774912  .00000550  00000-0  35128-4 0  9995
2 43155  97.4001 264.4918 0016097 213.2039 274.4639 15.12521130192916
